[ {"name": "STARLINK-31685", "line1": "1 59578U 24076Q   26156.48268684  .00001412  00000+0  60809-4 0  9993", "line2": "2 59578  42.9997 232.8292 0001128 275.1568  84.9155 15.27583094119939"}, {"name": "STARLINK-31686", "line1": "1 59579U 24076R   26156.48654385  .00001034  00000+0  47077-4 0  9993", "line2": "2 59579  42.9979 232.8595 0001039 274.4017  85.6716 15.27580337119936"}, {"name": "STARLINK-31668", "line1": "1 59580U 24076S   26156.47497940  .00000910  00000+0  42585-4 0  9997", "line2": "2 59580  43.0012 232.7762 0001319 255.0403 105.0302 15.27579936119939"}, {"name": "STARLINK-31690", "line1": "1 59581U 24076T   26156.49681907  .00000319  00000+0  21086-4 0  9994", "line2": "2 59581  42.9973 232.9340 0000309 205.2403 154.8433 15.27586253119941"}, {"name": "STARLINK-31701", "line1": "1 59582U 24076U   26156.51221030  .00040165  00000+0  14519-2 0  9999", "line2": "2 59582  43.0009 233.0498 0001163 265.2918  94.7801 15.27789061119848"}, {"name": "STARLINK-31697", "line1": "1 59583U 24076V   26152.57235541  .00001428  00000+0  61385-4 0  9998", "line2": "2 59583  42.9974 255.0733 0000343 277.3092  82.7721 15.27577513119249"}, {"name": "STARLINK-31662", "line1": "1 59584U 24076W   26152.33394170 -.00000960  00000+0 -25372-4 0  9995", "line2": "2 59584  42.9999 256.7313 0000652 214.5818 145.4991 15.27575659119291"}, {"name": "STARLINK-31702", "line1": "1 59585U 24076X   26153.59297603  .00002575  00000+0  10305-3 0  9999", "line2": "2 59585  43.0020 249.8461 0001787 277.2266  82.8383 15.27583957119489"}, {"name": "STARLINK-31704", "line1": "1 59586U 24076Y   26157.16671295  .00067387  00000+0  13046-2 0  9996", "line2": "2 59586  42.9904 176.2610 0017036  90.6455 200.4411 15.46692402  5682"}, {"name": "STARLINK-31770", "line1": "1 59601U 24080A   26156.59709258  .00001045  00000+0  47479-4 0  9994", "line2": "2 59601  43.0007 261.7408 0000668 249.6895 110.3884 15.27583840119186"}, {"name": "STARLINK-31778", "line1": "1 59602U 24080B   26152.80645245  .00004347  00000+0  16742-3 0  9996", "line2": "2 59602  43.0009 279.7121 0001048 222.2492 137.8279 15.27578590117437"}, {"name": "STARLINK-31776", "line1": "1 59603U 24080C   26156.79147179  .00002851  00000+0  11304-3 0  9999", "line2": "2 59603  43.0013 264.0771 0001478 273.0880  86.9802 15.27599068117960"}, {"name": "STARLINK-31765", "line1": "1 59604U 24080D   26156.96033492  .00004386  00000+0  16872-3 0  9991", "line2": "2 59604  43.0033 255.8459 0002110 275.8876  84.1735 15.27602161118070"}, {"name": "STARLINK-31767", "line1": "1 59605U 24080E   26156.58938498  .00000791  00000+0  38244-4 0  9994", "line2": "2 59605  43.0006 261.6831 0000803 286.8457  73.2306 15.27580886117974"}, {"name": "STARLINK-31782", "line1": "1 59606U 24080F   26156.60560400  .00000248  00000+0  18540-4 0  9996", "line2": "2 59606  43.0012 265.2604 0000952 275.2651  84.8092 15.27577746117930"}, {"name": "STARLINK-31755", "line1": "1 59607U 24080G   26156.60946216 -.00000816  00000+0 -20124-4 0  9994", "line2": "2 59607  43.0040 265.2951 0001094 283.1822  76.8908 15.27573780117934"}, {"name": "STARLINK-31585", "line1": "1 59608U 24080H   26156.01537641  .00000555  00000+0  29682-4 0  9994", "line2": "2 59608  43.0030 260.7901 0001686 249.2641 110.8030 15.27578491117948"}, {"name": "STARLINK-31667", "line1": "1 59609U 24080J   26156.01925345 -.00047014  00000+0 -17192-2 0  9991", "line2": "2 59609  43.0049 260.8195 0002466 249.0879 110.9709 15.27396612117939"}, {"name": "STARLINK-31729", "line1": "1 59610U 24080K   26156.59372247  .00001642  00000+0  69144-4 0  9994", "line2": "2 59610  42.9995 258.2553 0000844 261.3083  98.7673 15.27584952118019"}, {"name": "STARLINK-31448", "line1": "1 59611U 24080L   26156.57830096  .00000884  00000+0  41628-4 0  9998", "line2": "2 59611  42.9986 258.1378 0000328 250.6038 109.4778 15.27584500118017"}, {"name": "STARLINK-31748", "line1": "1 59612U 24080M   26156.55904813  .00001056  00000+0  47905-4 0  9992", "line2": "2 59612  43.0047 258.0004 0001752 286.2630  73.8029 15.27577277119183"}, {"name": "STARLINK-31746", "line1": "1 59613U 24080N   26156.02483333  .00000493  00000+0  27446-4 0  9996", "line2": "2 59613  43.0014 268.6189 0000687 299.8293  60.2491 15.27578118117849"}, {"name": "STARLINK-31762", "line1": "1 59614U 24080P   26155.99705178  .00000930  00000+0  43306-4 0  9995", "line2": "2 59614  42.9979 264.9768 0000635 274.8436  85.2343 15.27576826117886"}, {"name": "STARLINK-31768", "line1": "1 59616U 24080R   26156.97527992  .00001812  00000+0  75337-4 0  9991", "line2": "2 59616  42.9987 259.4183 0000970 262.9733  97.1008 15.27584086118032"}, {"name": "STARLINK-31769", "line1": "1 59617U 24080S   26156.99326515 -.00001549  00000+0 -46774-4 0  9994", "line2": "2 59617  43.0022 259.5540 0001530 268.0647  92.0029 15.27568630118031"}, {"name": "STARLINK-31784", "line1": "1 59618U 24080T   26156.59917623  .00000082  00000+0  12495-4 0  9999", "line2": "2 59618  43.0013 265.2146 0001232 268.8550  91.2161 15.27578884117936"}]