OBJECT_NAME,OBJECT_ID,EPOCH,MEAN_MOTION,ECCENTRICITY,INCLINATION,RA_OF_ASC_NODE,ARG_OF_PERICENTER,MEAN_ANOMALY,EPHEMERIS_TYPE,CLASSIFICATION_TYPE,NORAD_CAT_ID,ELEMENT_SET_NO,REV_AT_EPOCH,BSTAR,MEAN_MOTION_DOT,MEAN_MOTION_DDOT
STARLINK-31685,2024-076Q,2026-06-05T11:35:04.142976,15.27583094,.00011285,42.9997,232.8292,275.1568,84.9155,0,U,59578,999,11993,.60808663E-4,.1412E-4,0
STARLINK-31686,2024-076R,2026-06-05T11:40:37.388640,15.27580337,.0001039,42.9979,232.8595,274.4017,85.6716,0,U,59579,999,11993,.47077162E-4,.1034E-4,0
STARLINK-31668,2024-076S,2026-06-05T11:23:58.220160,15.27579936,.00013192,43.0012,232.7762,255.0403,105.0302,0,U,59580,999,11993,.42584886E-4,.91E-5,0
STARLINK-31690,2024-076T,2026-06-05T11:55:25.167648,15.27586253,.00003091,42.9973,232.9340,205.2403,154.8433,0,U,59581,999,11994,.21086168E-4,.319E-5,0
STARLINK-31701,2024-076U,2026-06-05T12:17:34.969920,15.27789061,.00011637,43.0009,233.0498,265.2918,94.7801,0,U,59582,999,11984,.14519061E-2,.40165E-3,0
STARLINK-31697,2024-076V,2026-06-01T13:44:11.507424,15.27577513,.0000343,42.9974,255.0733,277.3092,82.7721,0,U,59583,999,11924,.61384641E-4,.1428E-4,0
STARLINK-31662,2024-076W,2026-06-01T08:00:52.562880,15.27575659,.00006521,42.9999,256.7313,214.5818,145.4991,0,U,59584,999,11929,-.25371603E-4,-.96E-5,0
STARLINK-31702,2024-076X,2026-06-02T14:13:53.128992,15.27583957,.00017874,43.0020,249.8461,277.2266,82.8383,0,U,59585,999,11948,.10304818E-3,.2575E-4,0
STARLINK-31704,2024-076Y,2026-06-06T04:00:03.998880,15.46692402,.0017036,42.9904,176.2610,90.6455,200.4411,0,U,59586,999,568,.13046E-2,.67387E-3,0
STARLINK-31770,2024-080A,2026-06-05T14:19:48.798912,15.27583840,.00006683,43.0007,261.7408,249.6895,110.3884,0,U,59601,999,11918,.47478873E-4,.1045E-4,0
STARLINK-31778,2024-080B,2026-06-01T19:21:17.491680,15.27578590,.00010486,43.0009,279.7121,222.2492,137.8279,0,U,59602,999,11743,.16741787E-3,.4347E-4,0
STARLINK-31776,2024-080C,2026-06-05T18:59:43.162656,15.27599068,.0001478,43.0013,264.0771,273.0880,86.9802,0,U,59603,999,11796,.11304032E-3,.2851E-4,0
STARLINK-31765,2024-080D,2026-06-05T23:02:52.937088,15.27602161,.000211,43.0033,255.8459,275.8876,84.1735,0,U,59604,999,11807,.16872E-3,.4386E-4,0
STARLINK-31767,2024-080E,2026-06-05T14:08:42.862272,15.27580886,.00008037,43.0006,261.6831,286.8457,73.2306,0,U,59605,999,11797,.38244314E-4,.791E-5,0
STARLINK-31782,2024-080F,2026-06-05T14:32:04.185600,15.27577746,.00009528,43.0012,265.2604,275.2651,84.8092,0,U,59606,999,11793,.18540271E-4,.248E-5,0
STARLINK-31755,2024-080G,2026-06-05T14:37:37.530624,15.27573780,.00010942,43.0040,265.2951,283.1822,76.8908,0,U,59607,999,11793,-.20124223E-4,-.816E-5,0
STARLINK-31585,2024-080H,2026-06-05T00:22:08.521824,15.27578491,.00016864,43.0030,260.7901,249.2641,110.8030,0,U,59608,999,11794,.2968196E-4,.555E-5,0
STARLINK-31667,2024-080J,2026-06-05T00:27:43.498080,15.27396612,.00024661,43.0049,260.8195,249.0879,110.9709,0,U,59609,999,11793,-.1719228E-2,-.47014E-3,0
STARLINK-31729,2024-080K,2026-06-05T14:14:57.621408,15.27584952,.00008446,42.9995,258.2553,261.3083,98.7673,0,U,59610,999,11801,.69144056E-4,.1642E-4,0
STARLINK-31448,2024-080L,2026-06-05T13:52:45.202944,15.27584500,.00003283,42.9986,258.1378,250.6038,109.4778,0,U,59611,999,11801,.41627905E-4,.884E-5,0
STARLINK-31748,2024-080M,2026-06-05T13:25:01.758432,15.27577277,.0001752,43.0047,258.0004,286.2630,73.8029,0,U,59612,999,11918,.47905E-4,.1056E-4,0
STARLINK-31746,2024-080N,2026-06-05T00:35:45.599712,15.27578118,.0000687,43.0014,268.6189,299.8293,60.2491,0,U,59613,999,11784,.27446179E-4,.493E-5,0
STARLINK-31762,2024-080P,2026-06-04T23:55:45.273792,15.27576826,.00006351,42.9979,264.9768,274.8436,85.2343,0,U,59614,999,11788,.43306077E-4,.93E-5,0
STARLINK-31768,2024-080R,2026-06-05T23:24:24.185088,15.27584086,.000097,42.9987,259.4183,262.9733,97.1008,0,U,59616,999,11803,.75337E-4,.1812E-4,0
STARLINK-31769,2024-080S,2026-06-05T23:50:18.108960,15.27568630,.000153,43.0022,259.5540,268.0647,92.0029,0,U,59617,999,11803,-.46774E-4,-.1549E-4,0
STARLINK-31784,2024-080T,2026-06-05T14:22:48.826272,15.27578884,.00012324,43.0013,265.2146,268.8550,91.2161,0,U,59618,999,11793,.12495035E-4,.82E-6,0
